{"spkid": "50515715", "covariance": {"epoch": "2457028.5", "labels": ["e", "q", "tp", "node", "peri", "i", "A2"], "elements": [{"label": "e", "value": ".4819618947460797", "title": "eccentricity", "units": null, "sigma": 1.20919401896087e-06, "name": "e"}, {"name": "q", "sigma": 9.21266245088102e-07, "units": "au", "title": "perihelion distance", "value": ".3957672677592877", "label": "q"}, {"label": "tp", "title": "time of perihelion passage", "value": "2456912.559171035363", "units": "TDB", "sigma": 0.000143637715511994, "name": "tp"}, {"value": "25.32140523918117", "title": "longitude of the ascending node", "units": "deg", "name": "om", "sigma": 2.90692841258581e-05, "label": "node"}, {"label": "peri", "title": "argument of perihelion", "value": "13.65538181677322", "units": "deg", "name": "w", "sigma": 4.52031524712364e-05}, {"units": "deg", "title": "inclination", "value": "7.719611805179689", "name": "i", "sigma": 4.59231596878078e-05, "label": "i"}], "data": [["1.46215017549073E-12", "-1.113988698562685E-12", "1.670295534269953E-10", "5.158700500564417E-12", "4.10637107882637E-11", "2.008508001531898E-11", "-7.986650463964182E-21"], ["-1.113988698562685E-12", "8.487314943387309E-13", "-1.27300888742155E-10", "-3.943867670836955E-12", "-3.130277542674333E-11", "-1.526509487357515E-11", "6.083356895920253E-21"], ["1.670295534269953E-10", "-1.27300888742155E-10", "2.063179331750458E-8", "1.075083196972675E-9", "5.277956806956434E-9", "9.852996339714615E-10", "-9.146988063384934E-19"], ["5.158700500564417E-12", "-3.943867670836955E-12", "1.075083196972675E-9", "8.450232795898646E-10", "-3.35446483412119E-10", "-9.1983593015871E-10", "2.231149278877868E-20"], ["4.10637107882637E-11", "-3.130277542674333E-11", "5.277956806956434E-9", "-3.35446483412119E-10", "2.043324993337845E-9", "6.327761016634701E-10", "-2.412747658908326E-19"], ["2.008508001531898E-11", "-1.526509487357515E-11", "9.852996339714615E-10", "-9.1983593015871E-10", "6.327761016634701E-10", "2.108936595711899E-9", "-2.006009111880696E-19"], ["-7.986650463964182E-21", "6.083356895920253E-21", "-9.146988063384934E-19", "2.231149278877868E-20", "-2.412747658908326E-19", "-2.006009111880696E-19", "1.632383243449011E-28"]]}, "elements": [{"label": "e", "title": "eccentricity", "value": ".4810121235389025", "units": null, "sigma": "1.215E-6", "name": "e"}, {"name": "a", "sigma": "8.1144E-9", "value": ".764601336173954", "title": "semi-major axis", "units": "au", "label": "a"}, {"label": "q", "title": "perihelion distance", "value": ".3968188238002381", "units": "au", "name": "q", "sigma": "9.3122E-7"}, {"name": "i", "sigma": "4.5234E-5", "title": "inclination; angle with respect to x-y ecliptic plane", "value": "7.820267620354581", "units": "deg", "label": "i"}, {"label": "node", "name": "om", "sigma": "2.7032E-5", "title": "longitude of the ascending node", "value": "24.97154756591007", "units": "deg"}, {"label": "peri", "value": "14.00128481214954", "title": "argument of perihelion", "units": "deg", "sigma": "4.449E-5", "name": "w"}, {"units": "deg", "title": "mean anomaly", "value": "207.7194433002409", "sigma": ".00022515", "name": "ma", "label": "M"}, {"label": "tp", "name": "tp", "sigma": ".00015211", "title": "time of perihelion passage", "value": "2461303.798249232371", "units": "TDB"}, {"label": "period", "name": "per", "sigma": "3.8874E-6", "units": "d", "value": "244.2030061459085", "title": "sidereal orbital period"}, {"units": "deg/d", "value": "1.474183326739656", "title": "mean motion", "sigma": "2.3467E-8", "name": "n", "label": "n"}, {"label": "Q", "name": "ad", "sigma": "1.2017E-8", "title": "aphelion distance", "value": "1.13238384854767", "units": "au"}], "epoch": "2461200.5"}